STARLINK-31975          
1 59886U 24100B   26068.54015810 -.00008701  00000+0 -30686-3 0  9992
2 59886  43.0001 126.2718 0000859 177.9327 182.1528 15.27599660101134
2025-155V               
1 64895U 25155V   26068.85787115  .00013705  00000+0  51002-3 0  9990
2 64895  97.4485  37.2490 0008035 152.8264 207.3397 15.27583301 65579
